{"type":"FeatureCollection","name":"Central Europe basemap (Natural Earth 1:50m)","features":[{"type":"Feature","properties":{"name":"Austria","iso_a3":"AUT"},"geometry":{"type":"Polygon","coordinates":[[[9.609,47.392],[9.626,47.467],[9.524,47.524],[9.651,47.526],[9.749,47.576],[10.034,47.474],[10.074,47.429],[10.066,47.393],[10.2,47.363],[10.183,47.279],[10.241,47.284],[10.313,47.313],[10.369,47.366],[10.404,47.417],[10.439,47.552],[10.873,47.52],[10.894,47.47],[10.981,47.398],[11.042,47.393],[11.191,47.425],[11.298,47.425],[11.374,47.46],[11.393,47.487],[11.717,47.583],[12.186,47.62],[12.209,47.718],[12.363,47.688],[12.483,47.637],[12.686,47.669],[12.771,47.639],[12.796,47.607],[12.783,47.564],[12.809,47.542],[12.968,47.476],[13.014,47.478],[13.054,47.655],[13.034,47.699],[12.898,47.722],[12.954,47.808],[12.954,47.891],[12.76,48.076],[12.76,48.107],[12.814,48.161],[13.082,48.275],[13.323,48.331],[13.375,48.361],[13.409,48.394],[13.46,48.565],[13.487,48.582],[13.675,48.523],[13.724,48.542],[13.785,48.587],[13.815,48.767],[13.989,48.692],[14.049,48.602],[14.19,48.579],[14.368,48.576],[14.431,48.616],[14.489,48.626],[14.691,48.599],[14.707,48.672],[14.786,48.747],[14.822,48.774],[14.923,48.771],[14.972,48.984],[14.993,49.001],[15.067,48.998],[15.162,48.946],[15.311,48.974],[15.701,48.86],[15.825,48.864],[16.057,48.755],[16.367,48.739],[16.478,48.8],[16.544,48.796],[16.713,48.734],[16.884,48.704],[16.953,48.599],[16.943,48.551],[16.863,48.441],[16.865,48.387],[17.086,48.04],[17.147,48.006],[17.089,47.964],[17.078,47.901],[17.04,47.873],[17.03,47.837],[17.067,47.708],[16.786,47.679],[16.591,47.751],[16.551,47.747],[16.421,47.674],[16.432,47.656],[16.64,47.609],[16.677,47.536],[16.623,47.448],[16.515,47.405],[16.443,47.4],[16.434,47.367],[16.463,47.273],[16.417,47.223],[16.438,47.146],[16.483,47.14],[16.493,47.123],[16.461,47.022],[16.424,46.997],[16.332,47.002],[16.253,46.972],[16.093,46.863],[16.037,46.845],[15.977,46.801],[15.98,46.706],[15.958,46.678],[15.767,46.711],[15.633,46.698],[15.439,46.63],[15.217,46.643],[14.893,46.606],[14.841,46.58],[14.757,46.499],[14.597,46.436],[14.55,46.4],[13.831,46.511],[13.49,46.556],[13.169,46.573],[12.479,46.673],[12.388,46.703],[12.154,46.935],[12.131,46.985],[12.201,47.061],[12.169,47.082],[11.776,46.986],[11.528,46.997],[11.244,46.976],[11.134,46.936],[11.025,46.797],[10.927,46.769],[10.76,46.793],[10.689,46.846],[10.453,46.865],[10.455,46.899],[10.415,46.964],[10.349,46.985],[10.18,46.862],[10.133,46.852],[9.878,46.938],[9.845,47.007],[9.58,47.057],[9.611,47.107],[9.556,47.185],[9.528,47.271],[9.609,47.392]]]}},{"type":"Feature","properties":{"name":"Belgium","iso_a3":"BEL"},"geometry":{"type":"Polygon","coordinates":[[[4.304,51.362],[4.404,51.367],[4.385,51.428],[4.503,51.475],[4.589,51.422],[4.634,51.422],[4.756,51.491],[4.811,51.453],[4.821,51.412],[4.848,51.403],[4.944,51.408],[5.031,51.469],[5.059,51.453],[5.1,51.346],[5.214,51.279],[5.311,51.26],[5.477,51.285],[5.609,51.198],[5.752,51.169],[5.827,51.126],[5.75,50.989],[5.75,50.95],[5.639,50.844],[5.694,50.775],[5.747,50.76],[5.994,50.75],[6.236,50.597],[6.168,50.545],[6.179,50.523],[6.203,50.499],[6.295,50.485],[6.341,50.452],[6.364,50.316],[6.175,50.233],[6.117,50.121],[6.089,50.155],[5.976,50.167],[5.867,50.083],[5.744,49.92],[5.725,49.808],[5.88,49.645],[5.815,49.554],[5.507,49.511],[5.279,49.678],[5.124,49.721],[5.007,49.778],[4.868,49.788],[4.842,49.915],[4.79,49.96],[4.861,50.136],[4.819,50.153],[4.707,50.097],[4.656,50.002],[4.545,49.96],[4.369,49.945],[4.149,49.972],[4.137,50.0],[4.184,50.053],[4.192,50.094],[4.135,50.144],[4.175,50.246],[4.044,50.321],[3.95,50.336],[3.748,50.344],[3.689,50.306],[3.667,50.325],[3.627,50.457],[3.595,50.477],[3.316,50.507],[3.273,50.532],[3.235,50.663],[3.182,50.732],[3.107,50.779],[2.84,50.712],[2.759,50.751],[2.597,50.876],[2.579,50.912],[2.601,50.955],[2.536,51.05],[2.525,51.097],[2.96,51.265],[3.35,51.378],[3.38,51.291],[3.433,51.246],[3.472,51.242],[3.58,51.286],[3.682,51.276],[3.831,51.213],[3.902,51.208],[4.173,51.307],[4.226,51.386],[4.304,51.362]]]}},{"type":"Feature","properties":{"name":"Croatia","iso_a3":"HRV"},"geometry":{"type":"Polygon","coordinates":[[[15.666,46.048],[15.597,46.109],[15.593,46.14],[15.636,46.201],[15.933,46.278],[16.001,46.305],[16.067,46.371],[16.227,46.373],[16.253,46.389],[16.237,46.484],[16.321,46.535],[16.516,46.5],[16.748,46.416],[16.871,46.339],[16.94,46.254],[17.033,46.187],[17.15,46.14],[17.242,46.077],[17.307,46.0],[15.673,46.0],[15.666,46.048]]]}},{"type":"Feature","properties":{"name":"Czech Republic","iso_a3":"CZE"},"geometry":{"type":"Polygon","coordinates":[[[18.807,49.509],[18.596,49.491],[18.416,49.391],[18.365,49.336],[18.161,49.257],[18.11,49.18],[18.086,49.065],[18.051,49.037],[17.913,48.999],[17.758,48.888],[17.625,48.842],[17.483,48.828],[17.188,48.861],[17.136,48.841],[17.063,48.781],[16.985,48.677],[16.953,48.599],[16.884,48.704],[16.713,48.734],[16.544,48.796],[16.478,48.8],[16.367,48.739],[16.057,48.755],[15.825,48.864],[15.701,48.86],[15.311,48.974],[15.162,48.946],[15.067,48.998],[14.993,49.001],[14.972,48.984],[14.923,48.771],[14.822,48.774],[14.786,48.747],[14.707,48.672],[14.691,48.599],[14.489,48.626],[14.431,48.616],[14.368,48.576],[14.19,48.579],[14.049,48.602],[13.989,48.692],[13.815,48.767],[13.77,48.816],[13.548,48.96],[13.441,48.956],[13.289,49.097],[13.141,49.158],[12.917,49.33],[12.813,49.329],[12.681,49.415],[12.5,49.64],[12.391,49.74],[12.498,49.853],[12.512,49.896],[12.458,49.956],[12.276,50.042],[12.208,50.098],[12.175,50.176],[12.09,50.269],[12.09,50.302],[12.135,50.311],[12.175,50.288],[12.277,50.181],[12.453,50.35],[12.549,50.393],[12.765,50.431],[12.943,50.406],[13.016,50.49],[13.181,50.51],[13.238,50.577],[13.306,50.586],[13.375,50.622],[13.436,50.601],[13.557,50.705],[13.899,50.761],[14.369,50.899],[14.377,50.914],[14.299,50.953],[14.256,51.002],[14.283,51.029],[14.32,51.038],[14.546,50.994],[14.595,50.919],[14.624,50.915],[14.614,50.856],[14.723,50.815],[14.767,50.818],[14.809,50.859],[14.983,50.887],[14.994,51.014],[15.259,50.959],[15.277,50.883],[15.354,50.812],[15.731,50.74],[15.949,50.67],[16.007,50.612],[16.282,50.656],[16.36,50.621],[16.42,50.574],[16.379,50.517],[16.283,50.483],[16.21,50.424],[16.231,50.394],[16.334,50.367],[16.488,50.248],[16.597,50.122],[16.639,50.102],[16.679,50.097],[16.842,50.187],[16.99,50.237],[16.993,50.26],[16.869,50.415],[16.88,50.427],[17.152,50.378],[17.415,50.255],[17.555,50.264],[17.702,50.307],[17.72,50.299],[17.735,50.231],[17.709,50.194],[17.589,50.157],[17.627,50.116],[17.681,50.101],[17.831,49.983],[17.875,49.972],[17.984,49.999],[18.028,50.035],[18.305,49.914],[18.348,49.93],[18.562,49.879],[18.595,49.758],[18.807,49.614],[18.832,49.511],[18.807,49.509]]]}},{"type":"Feature","properties":{"name":"Denmark","iso_a3":"DNK"},"geometry":{"type":"MultiPolygon","coordinates":[[[[12.571,55.685],[12.507,55.637],[12.321,55.588],[12.243,55.538],[12.215,55.467],[12.275,55.414],[12.385,55.386],[12.413,55.286],[12.322,55.237],[12.09,55.188],[12.05,54.815],[11.862,54.773],[11.741,54.915],[11.74,54.972],[11.654,55.187],[11.476,55.212],[11.286,55.204],[11.171,55.329],[11.19,55.466],[11.128,55.535],[11.121,55.601],[11.009,55.644],[10.979,55.722],[11.05,55.74],[11.224,55.731],[11.322,55.753],[11.464,55.879],[11.475,55.943],[11.628,55.957],[11.696,55.908],[11.691,55.729],[11.82,55.698],[11.885,55.808],[11.922,55.828],[11.935,55.896],[11.913,55.937],[11.866,55.968],[11.932,56.0],[12.579,56.0],[12.525,55.918],[12.569,55.785],[12.571,55.685]]],[[[9.725,54.826],[9.616,54.855],[9.342,54.806],[9.255,54.808],[9.186,54.845],[8.903,54.897],[8.67,54.903],[8.638,55.046],[8.573,55.134],[8.67,55.156],[8.651,55.329],[8.616,55.418],[8.132,55.6],[8.193,56.0],[10.225,56.0],[10.183,55.865],[10.159,55.854],[10.107,55.874],[10.017,55.876],[9.904,55.843],[10.024,55.761],[9.999,55.736],[9.899,55.708],[9.773,55.608],[9.661,55.557],[9.591,55.493],[9.671,55.266],[9.643,55.205],[9.505,55.116],[9.454,55.04],[9.645,55.023],[9.732,54.968],[9.705,54.928],[9.74,54.826],[9.725,54.826]]],[[[10.687,55.558],[10.819,55.322],[10.785,55.27],[10.808,55.203],[10.785,55.133],[10.624,55.052],[10.443,55.049],[9.989,55.163],[9.967,55.205],[9.93,55.229],[9.859,55.357],[9.861,55.515],[10.286,55.611],[10.354,55.599],[10.424,55.56],[10.505,55.558],[10.623,55.613],[10.645,55.61],[10.687,55.558]]],[[[11.538,54.83],[11.658,54.833],[11.74,54.807],[11.766,54.679],[11.68,54.654],[11.586,54.662],[11.457,54.629],[11.036,54.773],[11.059,54.941],[11.258,54.952],[11.361,54.892],[11.538,54.83]]],[[[10.69,54.745],[10.622,54.851],[10.857,55.052],[10.925,55.158],[10.951,55.156],[10.921,55.062],[10.765,54.8],[10.734,54.751],[10.69,54.745]]],[[[12.511,54.951],[12.358,54.962],[12.184,54.892],[12.119,54.914],[12.162,54.975],[12.259,55.021],[12.274,55.064],[12.31,55.041],[12.417,55.031],[12.513,54.997],[12.549,54.966],[12.511,54.951]]],[[[12.572,55.554],[12.551,55.556],[12.52,55.615],[12.599,55.68],[12.62,55.679],[12.666,55.597],[12.572,55.554]]],[[[10.417,54.837],[10.341,54.859],[10.2,54.963],[10.505,54.861],[10.417,54.837]]],[[[9.957,54.872],[9.904,54.897],[9.806,54.906],[9.771,55.06],[9.83,55.058],[9.999,54.986],[10.061,54.886],[9.957,54.872]]],[[[10.59,55.765],[10.527,55.784],[10.52,55.848],[10.544,55.907],[10.516,55.959],[10.547,55.992],[10.662,55.878],[10.59,55.765]]],[[[15.051,55.005],[14.886,55.033],[14.684,55.102],[14.714,55.238],[14.765,55.297],[15.133,55.145],[15.137,55.087],[15.088,55.022],[15.051,55.005]]]]}},{"type":"Feature","properties":{"name":"France","iso_a3":"-99"},"geometry":{"type":"Polygon","coordinates":[[[7.495,47.547],[7.42,47.455],[7.343,47.433],[7.203,47.433],[7.136,47.49],[7.053,47.489],[6.968,47.453],[6.9,47.394],[6.921,47.361],[6.984,47.353],[7.001,47.323],[6.667,47.027],[6.456,46.948],[6.41,46.755],[6.161,46.611],[6.068,46.459],[6.06,46.428],[6.123,46.379],[6.096,46.279],[5.97,46.215],[5.971,46.151],[6.007,46.142],[6.087,46.147],[6.199,46.193],[6.273,46.252],[6.224,46.319],[6.235,46.333],[6.322,46.394],[6.429,46.431],[6.578,46.437],[6.758,46.416],[6.776,46.407],[6.784,46.314],[6.817,46.275],[6.772,46.165],[6.968,46.0],[0.0,46.0],[0.0,49.336],[0.136,49.402],[0.417,49.448],[0.439,49.473],[0.278,49.463],[0.129,49.508],[0.109,49.558],[0.187,49.703],[0.616,49.863],[0.924,49.91],[1.246,49.998],[1.407,50.089],[1.514,50.205],[1.593,50.252],[1.552,50.294],[1.579,50.739],[1.61,50.819],[1.672,50.885],[1.913,50.991],[2.446,51.067],[2.525,51.097],[2.536,51.05],[2.601,50.955],[2.579,50.912],[2.597,50.876],[2.759,50.751],[2.84,50.712],[3.107,50.779],[3.182,50.732],[3.235,50.663],[3.273,50.532],[3.316,50.507],[3.595,50.477],[3.627,50.457],[3.667,50.325],[3.689,50.306],[3.748,50.344],[3.95,50.336],[4.044,50.321],[4.175,50.246],[4.135,50.144],[4.192,50.094],[4.184,50.053],[4.137,50.0],[4.176,49.96],[4.369,49.945],[4.545,49.96],[4.656,50.002],[4.707,50.097],[4.819,50.153],[4.861,50.136],[4.79,49.96],[4.842,49.915],[4.868,49.788],[5.007,49.778],[5.124,49.721],[5.279,49.678],[5.507,49.511],[5.79,49.538],[5.823,49.505],[6.011,49.445],[6.181,49.499],[6.242,49.494],[6.344,49.453],[6.458,49.443],[6.534,49.395],[6.575,49.32],[6.735,49.161],[6.776,49.154],[6.85,49.202],[6.891,49.208],[7.001,49.18],[7.037,49.113],[7.117,49.128],[7.2,49.114],[7.451,49.152],[7.525,49.086],[7.611,49.062],[8.001,49.011],[8.135,48.974],[8.14,48.886],[7.838,48.636],[7.706,48.28],[7.617,48.157],[7.584,48.064],[7.608,48.003],[7.593,47.906],[7.539,47.774],[7.529,47.674],[7.565,47.607],[7.616,47.593],[7.495,47.547]]]}},{"type":"Feature","properties":{"name":"Germany","iso_a3":"DEU"},"geometry":{"type":"MultiPolygon","coordinates":[[[[9.35,47.599],[9.183,47.671],[8.881,47.656],[8.831,47.704],[8.793,47.717],[8.728,47.7],[8.573,47.776],[8.436,47.731],[8.403,47.688],[8.413,47.663],[8.552,47.659],[8.571,47.638],[8.43,47.592],[8.198,47.607],[8.094,47.576],[7.927,47.564],[7.698,47.57],[7.565,47.607],[7.529,47.674],[7.539,47.774],[7.593,47.906],[7.608,48.003],[7.584,48.064],[7.617,48.157],[7.706,48.28],[7.838,48.636],[8.14,48.886],[8.135,48.974],[8.001,49.011],[7.611,49.062],[7.525,49.086],[7.451,49.152],[7.2,49.114],[7.117,49.128],[7.037,49.113],[7.001,49.18],[6.891,49.208],[6.85,49.202],[6.776,49.154],[6.735,49.161],[6.575,49.32],[6.534,49.395],[6.458,49.443],[6.344,49.453],[6.378,49.6],[6.485,49.708],[6.487,49.798],[6.256,49.872],[6.138,49.974],[6.11,50.034],[6.121,50.139],[6.175,50.233],[6.364,50.316],[6.341,50.452],[6.295,50.485],[6.203,50.499],[6.179,50.523],[6.168,50.545],[6.236,50.597],[5.994,50.75],[6.048,50.905],[6.007,50.95],[5.895,50.984],[5.858,51.03],[5.868,51.045],[5.939,51.041],[6.13,51.147],[6.137,51.165],[6.082,51.18],[6.076,51.224],[6.166,51.355],[6.199,51.45],[6.193,51.489],[6.091,51.599],[6.089,51.638],[5.949,51.762],[5.949,51.803],[6.167,51.881],[6.356,51.825],[6.425,51.858],[6.518,51.854],[6.742,51.911],[6.802,51.98],[6.716,52.036],[6.725,52.08],[6.977,52.206],[7.02,52.266],[7.035,52.38],[7.002,52.419],[6.968,52.444],[6.833,52.442],[6.749,52.464],[6.692,52.53],[6.719,52.574],[6.711,52.618],[6.748,52.634],[7.013,52.634],[7.117,52.887],[7.179,52.966],[7.197,53.282],[7.152,53.327],[7.053,53.376],[7.107,53.557],[7.206,53.655],[7.285,53.681],[8.009,53.691],[8.167,53.543],[8.108,53.468],[8.201,53.432],[8.245,53.445],[8.302,53.584],[8.334,53.606],[8.493,53.514],[8.495,53.394],[8.538,53.557],[8.506,53.671],[8.528,53.781],[8.619,53.875],[8.898,53.836],[9.206,53.856],[9.322,53.813],[9.585,53.6],[9.673,53.566],[9.784,53.555],[9.631,53.6],[9.312,53.859],[9.216,53.891],[8.978,53.926],[8.92,53.965],[8.904,54.0],[8.907,54.261],[8.852,54.3],[8.78,54.313],[8.645,54.295],[8.626,54.354],[8.648,54.398],[8.952,54.468],[8.957,54.538],[8.682,54.792],[8.67,54.903],[8.903,54.897],[9.186,54.845],[9.255,54.808],[9.342,54.806],[9.616,54.855],[9.74,54.826],[9.746,54.807],[9.892,54.781],[10.022,54.674],[10.029,54.581],[9.869,54.472],[10.143,54.488],[10.212,54.409],[10.36,54.438],[10.732,54.316],[11.013,54.379],[11.064,54.281],[11.009,54.181],[10.811,54.075],[10.855,54.01],[10.918,53.995],[11.104,54.009],[11.4,53.945],[11.461,53.965],[11.701,54.114],[11.796,54.145],[12.111,54.168],[12.169,54.226],[12.296,54.284],[12.575,54.467],[13.029,54.411],[13.147,54.283],[13.448,54.141],[13.724,54.153],[13.822,54.019],[13.866,53.853],[14.025,53.767],[14.259,53.73],[14.299,53.556],[14.415,53.283],[14.411,53.199],[14.369,53.106],[14.293,53.027],[14.194,52.982],[14.139,52.933],[14.129,52.878],[14.254,52.783],[14.514,52.646],[14.619,52.529],[14.555,52.36],[14.616,52.278],[14.68,52.25],[14.705,52.207],[14.692,52.15],[14.705,52.11],[14.753,52.082],[14.675,51.905],[14.602,51.832],[14.624,51.771],[14.725,51.662],[14.739,51.627],[14.711,51.545],[14.725,51.524],[14.906,51.463],[14.936,51.435],[15.017,51.253],[14.964,51.095],[14.917,51.009],[14.767,50.818],[14.723,50.815],[14.614,50.856],[14.624,50.915],[14.595,50.919],[14.546,50.994],[14.32,51.038],[14.256,51.002],[14.299,50.953],[14.377,50.914],[14.369,50.899],[13.899,50.761],[13.557,50.705],[13.436,50.601],[13.375,50.622],[13.306,50.586],[13.238,50.577],[13.181,50.51],[13.016,50.49],[12.943,50.406],[12.765,50.431],[12.549,50.393],[12.453,50.35],[12.277,50.181],[12.231,50.245],[12.135,50.311],[12.099,50.311],[12.09,50.269],[12.175,50.176],[12.208,50.098],[12.276,50.042],[12.458,49.956],[12.512,49.896],[12.498,49.853],[12.391,49.74],[12.5,49.64],[12.632,49.461],[12.813,49.329],[12.917,49.33],[13.141,49.158],[13.289,49.097],[13.401,48.978],[13.441,48.956],[13.548,48.96],[13.77,48.816],[13.815,48.767],[13.785,48.587],[13.675,48.523],[13.487,48.582],[13.46,48.565],[13.409,48.394],[13.375,48.361],[13.323,48.331],[13.082,48.275],[12.897,48.204],[12.814,48.161],[12.76,48.107],[12.76,48.076],[12.954,47.891],[12.954,47.808],[12.898,47.722],[13.034,47.699],[13.054,47.655],[13.014,47.478],[12.968,47.476],[12.809,47.542],[12.783,47.564],[12.796,47.607],[12.771,47.639],[12.686,47.669],[12.483,47.637],[12.363,47.688],[12.209,47.718],[12.186,47.62],[11.717,47.583],[11.393,47.487],[11.374,47.46],[11.298,47.425],[11.191,47.425],[11.042,47.393],[10.981,47.398],[10.894,47.47],[10.873,47.52],[10.439,47.552],[10.404,47.417],[10.369,47.366],[10.313,47.313],[10.183,47.279],[10.2,47.363],[10.066,47.393],[10.06,47.449],[9.972,47.505],[9.749,47.576],[9.651,47.526],[9.524,47.524],[9.35,47.599]]],[[[13.734,54.315],[13.707,54.281],[13.595,54.338],[13.482,54.337],[13.415,54.25],[13.364,54.246],[13.19,54.326],[13.162,54.365],[13.177,54.544],[13.231,54.583],[13.24,54.638],[13.337,54.697],[13.423,54.699],[13.491,54.615],[13.658,54.56],[13.671,54.535],[13.58,54.464],[13.602,54.425],[13.709,54.383],[13.734,54.315]]],[[[14.198,53.919],[14.214,53.871],[14.048,53.863],[13.926,53.879],[13.902,53.939],[13.922,53.997],[13.827,54.06],[13.828,54.127],[14.211,53.95],[14.198,53.919]]],[[[11.129,54.416],[11.071,54.456],[11.012,54.466],[11.043,54.515],[11.085,54.533],[11.234,54.501],[11.283,54.418],[11.129,54.416]]],[[[8.285,54.767],[8.296,54.908],[8.405,55.059],[8.451,55.055],[8.39,54.986],[8.371,54.929],[8.38,54.9],[8.63,54.892],[8.601,54.865],[8.347,54.848],[8.285,54.767]]],[[[8.549,54.688],[8.454,54.691],[8.4,54.714],[8.468,54.757],[8.573,54.749],[8.588,54.713],[8.549,54.688]]]]}},{"type":"Feature","properties":{"name":"Hungary","iso_a3":"HUN"},"geometry":{"type":"Polygon","coordinates":[[[17.242,46.077],[17.15,46.14],[17.033,46.187],[16.94,46.254],[16.871,46.339],[16.748,46.416],[16.516,46.5],[16.381,46.639],[16.385,46.681],[16.335,46.722],[16.308,46.828],[16.284,46.857],[16.093,46.863],[16.253,46.972],[16.332,47.002],[16.453,47.007],[16.493,47.123],[16.483,47.14],[16.438,47.146],[16.417,47.223],[16.463,47.273],[16.434,47.367],[16.443,47.4],[16.515,47.405],[16.623,47.448],[16.677,47.536],[16.64,47.609],[16.432,47.656],[16.421,47.674],[16.551,47.747],[16.591,47.751],[16.786,47.679],[17.067,47.708],[17.03,47.837],[17.04,47.873],[17.078,47.901],[17.089,47.964],[17.175,48.012],[17.317,47.991],[17.635,47.81],[17.762,47.77],[18.146,47.763],[18.724,47.787],[18.778,47.853],[18.748,47.893],[18.75,47.939],[18.792,48.0],[18.914,48.051],[19.0,48.056],[19.0,46.0],[17.307,46.0],[17.242,46.077]]]}},{"type":"Feature","properties":{"name":"Italy","iso_a3":"ITA"},"geometry":{"type":"MultiPolygon","coordinates":[[[[7.993,46.016],[8.125,46.161],[8.127,46.188],[8.082,46.256],[8.371,46.445],[8.437,46.432],[8.438,46.283],[8.458,46.246],[8.642,46.111],[8.819,46.077],[8.827,46.061],[8.781,46.0],[7.96,46.0],[7.993,46.016]]],[[[9.003,46.015],[9.251,46.287],[9.26,46.475],[9.304,46.496],[9.428,46.482],[9.481,46.349],[9.529,46.306],[9.639,46.296],[9.884,46.368],[9.939,46.362],[10.041,46.238],[10.081,46.228],[10.145,46.254],[10.11,46.363],[10.038,46.483],[10.087,46.6],[10.196,46.621],[10.272,46.565],[10.431,46.55],[10.438,46.619],[10.398,46.665],[10.453,46.865],[10.689,46.846],[10.76,46.793],[10.829,46.775],[10.993,46.777],[11.134,46.936],[11.244,46.976],[11.528,46.997],[11.776,46.986],[12.169,47.082],[12.201,47.061],[12.131,46.985],[12.154,46.935],[12.388,46.703],[12.479,46.673],[13.169,46.573],[13.49,46.556],[13.7,46.52],[13.68,46.463],[13.4,46.318],[13.378,46.262],[13.4,46.225],[13.633,46.177],[13.617,46.133],[13.486,46.04],[13.483,46.0],[9.001,46.0],[9.003,46.015]]]]}},{"type":"Feature","properties":{"name":"Liechtenstein","iso_a3":"LIE"},"geometry":{"type":"Polygon","coordinates":[[[9.502,47.063],[9.488,47.062],[9.479,47.098],[9.484,47.173],[9.528,47.271],[9.556,47.185],[9.611,47.107],[9.58,47.057],[9.502,47.063]]]}},{"type":"Feature","properties":{"name":"Luxembourg","iso_a3":"LUX"},"geometry":{"type":"Polygon","coordinates":[[[6.108,50.094],[6.11,50.034],[6.138,49.974],[6.256,49.872],[6.487,49.798],[6.485,49.708],[6.378,49.6],[6.344,49.453],[6.242,49.494],[6.181,49.499],[6.011,49.445],[5.823,49.505],[5.79,49.538],[5.88,49.645],[5.725,49.808],[5.744,49.92],[5.867,50.083],[5.976,50.167],[6.089,50.155],[6.117,50.121],[6.108,50.094]]]}},{"type":"Feature","properties":{"name":"Netherlands","iso_a3":"NLD"},"geometry":{"type":"MultiPolygon","coordinates":[[[[5.892,50.753],[5.694,50.775],[5.639,50.844],[5.75,50.95],[5.75,50.989],[5.818,51.086],[5.827,51.126],[5.796,51.153],[5.609,51.198],[5.477,51.285],[5.311,51.26],[5.214,51.279],[5.1,51.346],[5.059,51.453],[5.031,51.469],[4.944,51.408],[4.848,51.403],[4.821,51.412],[4.811,51.453],[4.756,51.491],[4.634,51.422],[4.589,51.422],[4.503,51.475],[4.385,51.428],[4.404,51.367],[4.374,51.356],[4.007,51.443],[3.822,51.409],[3.694,51.45],[3.587,51.454],[3.449,51.541],[3.549,51.589],[3.744,51.596],[3.886,51.574],[4.141,51.456],[4.274,51.472],[4.239,51.504],[4.08,51.551],[4.005,51.596],[4.183,51.61],[4.135,51.673],[3.947,51.811],[4.085,51.994],[4.209,52.059],[4.483,52.309],[4.562,52.443],[4.678,52.81],[4.769,52.941],[4.888,52.908],[5.061,52.961],[5.358,53.096],[5.446,53.214],[5.532,53.269],[5.874,53.375],[6.062,53.407],[6.816,53.441],[6.968,53.327],[7.197,53.282],[7.19,53.0],[7.051,52.745],[7.033,52.651],[7.013,52.634],[6.748,52.634],[6.711,52.618],[6.719,52.574],[6.692,52.53],[6.749,52.464],[6.833,52.442],[6.968,52.444],[7.035,52.38],[7.02,52.266],[6.977,52.206],[6.725,52.08],[6.716,52.036],[6.8,51.967],[6.742,51.911],[6.518,51.854],[6.425,51.858],[6.356,51.825],[6.167,51.881],[5.949,51.803],[5.949,51.762],[6.089,51.638],[6.091,51.599],[6.193,51.489],[6.199,51.45],[6.166,51.355],[6.076,51.224],[6.082,51.18],[6.137,51.165],[6.13,51.147],[5.939,51.041],[5.868,51.045],[5.858,51.03],[5.895,50.984],[6.007,50.95],[6.048,50.905],[5.994,50.75],[5.892,50.753]]],[[[4.211,51.349],[4.173,51.307],[3.902,51.208],[3.831,51.213],[3.682,51.276],[3.58,51.286],[3.472,51.242],[3.433,51.246],[3.38,51.291],[3.35,51.378],[3.589,51.399],[3.883,51.354],[4.011,51.396],[4.112,51.361],[4.226,51.386],[4.211,51.349]]],[[[6.193,53.477],[6.159,53.484],[6.333,53.511],[6.193,53.477]]],[[[5.732,53.443],[5.654,53.467],[5.876,53.475],[5.929,53.459],[5.732,53.443]]],[[[4.924,53.235],[4.908,53.246],[5.027,53.31],[5.109,53.308],[4.924,53.235]]],[[[5.233,53.378],[5.19,53.392],[5.415,53.431],[5.583,53.438],[5.233,53.378]]],[[[4.787,53.0],[4.709,53.036],[4.74,53.091],[4.886,53.183],[4.886,53.071],[4.787,53.0]]],[[[4.047,51.685],[4.075,51.649],[3.951,51.627],[3.819,51.694],[3.732,51.678],[3.699,51.73],[3.789,51.746],[3.949,51.739],[4.047,51.685]]],[[[6.642,53.579],[6.669,53.606],[6.801,53.625],[6.735,53.583],[6.642,53.579]]]]}},{"type":"Feature","properties":{"name":"Poland","iso_a3":"POL"},"geometry":{"type":"Polygon","coordinates":[[[18.968,49.396],[18.938,49.498],[18.832,49.511],[18.807,49.614],[18.595,49.758],[18.562,49.879],[18.348,49.93],[18.305,49.914],[18.028,50.035],[17.984,49.999],[17.875,49.972],[17.831,49.983],[17.681,50.101],[17.627,50.116],[17.589,50.157],[17.709,50.194],[17.735,50.231],[17.72,50.299],[17.702,50.307],[17.555,50.264],[17.415,50.255],[17.152,50.378],[16.88,50.427],[16.869,50.415],[16.993,50.26],[16.99,50.237],[16.842,50.187],[16.679,50.097],[16.639,50.102],[16.597,50.122],[16.488,50.248],[16.334,50.367],[16.231,50.394],[16.21,50.424],[16.283,50.483],[16.357,50.5],[16.42,50.574],[16.282,50.656],[16.007,50.612],[15.949,50.67],[15.731,50.74],[15.354,50.812],[15.277,50.883],[15.259,50.959],[14.994,51.014],[14.983,50.887],[14.809,50.859],[14.964,51.095],[15.017,51.253],[14.936,51.435],[14.906,51.463],[14.725,51.524],[14.711,51.545],[14.739,51.627],[14.725,51.662],[14.624,51.771],[14.602,51.832],[14.675,51.905],[14.753,52.082],[14.705,52.11],[14.692,52.15],[14.705,52.207],[14.68,52.25],[14.616,52.278],[14.555,52.36],[14.619,52.529],[14.514,52.646],[14.254,52.783],[14.129,52.878],[14.139,52.933],[14.194,52.982],[14.293,53.027],[14.369,53.106],[14.411,53.199],[14.415,53.283],[14.299,53.556],[14.259,53.73],[14.583,53.639],[14.552,53.707],[14.558,53.823],[14.214,53.871],[14.198,53.919],[14.211,53.95],[14.249,53.932],[14.384,53.925],[14.716,54.018],[15.288,54.14],[16.186,54.29],[16.56,54.554],[16.885,54.596],[17.262,54.73],[17.843,54.817],[18.323,54.838],[18.759,54.685],[18.8,54.633],[18.502,54.742],[18.436,54.745],[18.587,54.513],[18.67,54.431],[18.836,54.37],[19.0,54.351],[19.0,49.397],[18.968,49.396]]]}},{"type":"Feature","properties":{"name":"Slovakia","iso_a3":"SVK"},"geometry":{"type":"Polygon","coordinates":[[[18.914,48.051],[18.792,48.0],[18.75,47.939],[18.748,47.893],[18.778,47.853],[18.724,47.787],[18.146,47.763],[17.762,47.77],[17.635,47.81],[17.317,47.991],[17.147,48.006],[17.086,48.04],[16.865,48.387],[16.863,48.441],[16.943,48.551],[16.985,48.677],[17.063,48.781],[17.136,48.841],[17.188,48.861],[17.483,48.828],[17.625,48.842],[17.758,48.888],[17.913,48.999],[18.051,49.037],[18.086,49.065],[18.11,49.18],[18.161,49.257],[18.365,49.336],[18.416,49.391],[18.535,49.465],[18.596,49.491],[18.807,49.509],[18.938,49.498],[18.968,49.396],[19.0,49.397],[19.0,48.056],[18.914,48.051]]]}},{"type":"Feature","properties":{"name":"Slovenia","iso_a3":"SVN"},"geometry":{"type":"Polygon","coordinates":[[[16.428,46.524],[16.321,46.535],[16.258,46.508],[16.237,46.484],[16.253,46.389],[16.227,46.373],[16.067,46.371],[16.001,46.305],[15.933,46.278],[15.636,46.201],[15.593,46.14],[15.597,46.109],[15.666,46.048],[15.673,46.0],[13.483,46.0],[13.486,46.04],[13.617,46.133],[13.633,46.177],[13.492,46.217],[13.421,46.212],[13.378,46.262],[13.4,46.318],[13.68,46.463],[13.7,46.52],[14.55,46.4],[14.597,46.436],[14.757,46.499],[14.841,46.58],[14.893,46.606],[15.217,46.643],[15.439,46.63],[15.633,46.698],[15.767,46.711],[15.958,46.678],[15.98,46.706],[15.977,46.801],[16.093,46.863],[16.284,46.857],[16.308,46.828],[16.335,46.722],[16.385,46.681],[16.381,46.639],[16.516,46.5],[16.428,46.524]]]}},{"type":"Feature","properties":{"name":"Sweden","iso_a3":"SWE"},"geometry":{"type":"Polygon","coordinates":[[[14.402,55.977],[14.262,55.888],[14.215,55.833],[14.203,55.729],[14.342,55.528],[14.174,55.397],[14.08,55.392],[13.806,55.429],[13.321,55.346],[12.886,55.411],[12.941,55.482],[12.974,55.748],[12.942,55.806],[12.835,55.882],[12.723,56.0],[14.446,56.0],[14.402,55.977]]]}},{"type":"Feature","properties":{"name":"Switzerland","iso_a3":"CHE"},"geometry":{"type":"Polygon","coordinates":[[[9.554,47.511],[9.626,47.467],[9.609,47.392],[9.484,47.173],[9.488,47.062],[9.62,47.057],[9.845,47.007],[9.878,46.938],[10.133,46.852],[10.18,46.862],[10.349,46.985],[10.415,46.964],[10.455,46.899],[10.398,46.665],[10.438,46.619],[10.431,46.55],[10.272,46.565],[10.196,46.621],[10.087,46.6],[10.038,46.483],[10.11,46.363],[10.145,46.254],[10.128,46.238],[10.041,46.238],[9.939,46.362],[9.884,46.368],[9.639,46.296],[9.529,46.306],[9.481,46.349],[9.428,46.482],[9.304,46.496],[9.26,46.475],[9.251,46.287],[9.203,46.219],[9.022,46.051],[9.001,46.0],[8.781,46.0],[8.827,46.061],[8.819,46.077],[8.642,46.111],[8.565,46.16],[8.458,46.246],[8.438,46.283],[8.443,46.403],[8.423,46.446],[8.371,46.445],[8.232,46.341],[8.096,46.271],[8.082,46.256],[8.127,46.188],[8.125,46.161],[7.96,46.0],[6.968,46.0],[6.772,46.165],[6.817,46.275],[6.784,46.314],[6.776,46.407],[6.578,46.437],[6.429,46.431],[6.322,46.394],[6.224,46.319],[6.273,46.252],[6.199,46.193],[6.087,46.147],[5.971,46.151],[5.97,46.215],[6.096,46.279],[6.123,46.379],[6.06,46.428],[6.161,46.611],[6.41,46.755],[6.456,46.948],[6.667,47.027],[6.952,47.267],[7.001,47.339],[6.921,47.361],[6.9,47.394],[6.968,47.453],[7.053,47.489],[7.136,47.49],[7.203,47.433],[7.266,47.426],[7.42,47.455],[7.495,47.547],[7.616,47.593],[7.698,47.57],[7.927,47.564],[8.094,47.576],[8.198,47.607],[8.454,47.596],[8.559,47.624],[8.567,47.652],[8.452,47.652],[8.413,47.663],[8.403,47.688],[8.436,47.731],[8.573,47.776],[8.728,47.7],[8.793,47.717],[8.831,47.704],[8.881,47.656],[9.183,47.671],[9.554,47.511]]]}},{"type":"Feature","properties":{"name":"United Kingdom","iso_a3":"GBR"},"geometry":{"type":"MultiPolygon","coordinates":[[[[0.011,53.743],[0.115,53.609],[0.0,53.638],[0.0,53.754],[0.011,53.743]]],[[[0.128,53.468],[0.271,53.335],[0.356,53.16],[0.298,53.081],[0.046,52.906],[0.28,52.809],[0.382,52.825],[0.559,52.967],[0.704,52.977],[1.056,52.959],[1.271,52.925],[1.382,52.894],[1.657,52.754],[1.716,52.677],[1.743,52.579],[1.747,52.469],[1.647,52.279],[1.615,52.162],[1.559,52.087],[1.413,51.995],[1.317,51.957],[1.232,51.971],[1.228,51.949],[1.274,51.902],[1.274,51.845],[1.101,51.785],[0.955,51.808],[0.752,51.73],[0.898,51.689],[0.927,51.647],[0.891,51.571],[0.799,51.538],[0.507,51.501],[0.425,51.466],[0.528,51.484],[0.6,51.468],[0.646,51.405],[0.687,51.387],[0.889,51.36],[1.257,51.375],[1.415,51.363],[1.398,51.182],[1.366,51.155],[1.044,51.047],[0.96,50.926],[0.772,50.934],[0.684,50.886],[0.205,50.763],[0.0,50.789],[0.0,53.536],[0.128,53.468]]]]}}]}