{
  "type": "FeatureCollection",
  "features": [
    {
      "type": "Feature",
      "properties": {
        "id": "gussenhoven-peters-2019-tonal-isogloss-visible-part",
        "label": "Approximate tonal isogloss from the published 2019 overview",
        "source_year": 2019,
        "source_doi": "https://doi.org/10.1017/S095267571900023X",
        "basis_year": 1965,
        "basis": "Goossens 1965, map 2, via Gussenhoven & Peters 2019 Fig. 1",
        "schematic": true,
        "closed": false,
        "name": "Published tonal isogloss · schematic overview",
        "source": "https://doi.org/10.1017/S095267571900023X",
        "citation": "Gussenhoven & Peters (2019), Fig. 1, p. 498; based on Goossens (1965)",
        "description": "Approximate trace of the visible published boundary, georeferenced from town anchors. Southern ends remain open. Several-kilometre fitting uncertainty; town labels come from their own citations.",
        "license": "CC BY 4.0",
        "adaptation": "Manually traced and globally affine-georeferenced for this atlas; visible at overview zoom only.",
        "methodFile": "./references/tonal-isogloss-method.json"
      },
      "geometry": {
        "type": "LineString",
        "coordinates": [
          [
            6.10557,
            50.23197
          ],
          [
            6.109,
            50.26404
          ],
          [
            6.13924,
            50.29478
          ],
          [
            6.18048,
            50.32037
          ],
          [
            6.21093,
            50.34756
          ],
          [
            6.21521,
            50.36541
          ],
          [
            6.19995,
            50.39717
          ],
          [
            6.16878,
            50.42689
          ],
          [
            6.15415,
            50.44798
          ],
          [
            6.14552,
            50.50298
          ],
          [
            6.12984,
            50.54184
          ],
          [
            6.10955,
            50.56818
          ],
          [
            6.04025,
            50.60971
          ],
          [
            5.98718,
            50.64795
          ],
          [
            5.93732,
            50.67735
          ],
          [
            5.8993,
            50.68739
          ],
          [
            5.82924,
            50.69689
          ],
          [
            5.7564,
            50.70812
          ],
          [
            5.71016,
            50.72158
          ],
          [
            5.68229,
            50.74067
          ],
          [
            5.66745,
            50.76533
          ],
          [
            5.65732,
            50.80073
          ],
          [
            5.64131,
            50.84492
          ],
          [
            5.59592,
            50.84417
          ],
          [
            5.55468,
            50.81858
          ],
          [
            5.51622,
            50.79126
          ],
          [
            5.47723,
            50.77282
          ],
          [
            5.44283,
            50.76691
          ],
          [
            5.3921,
            50.76606
          ],
          [
            5.33827,
            50.77228
          ],
          [
            5.27878,
            50.78373
          ],
          [
            5.23244,
            50.79897
          ],
          [
            5.21802,
            50.81651
          ],
          [
            5.21717,
            50.83073
          ],
          [
            5.23459,
            50.85236
          ],
          [
            5.24421,
            50.8703
          ],
          [
            5.22895,
            50.90206
          ],
          [
            5.21081,
            50.93733
          ],
          [
            5.20089,
            50.96918
          ],
          [
            5.19364,
            51.00107
          ],
          [
            5.19985,
            51.03141
          ],
          [
            5.21417,
            51.06011
          ],
          [
            5.24986,
            51.08916
          ],
          [
            5.30156,
            51.11848
          ],
          [
            5.35605,
            51.14607
          ],
          [
            5.41597,
            51.17197
          ],
          [
            5.47376,
            51.18894
          ],
          [
            5.50549,
            51.1948
          ],
          [
            5.56659,
            51.20116
          ],
          [
            5.64156,
            51.19885
          ],
          [
            5.72178,
            51.19842
          ],
          [
            5.77539,
            51.19575
          ],
          [
            5.79527,
            51.22099
          ],
          [
            5.80137,
            51.2531
          ],
          [
            5.83737,
            51.27682
          ],
          [
            5.90735,
            51.31356
          ],
          [
            5.98533,
            51.35044
          ],
          [
            6.06321,
            51.38909
          ],
          [
            6.11524,
            51.41308
          ],
          [
            6.16822,
            51.42107
          ],
          [
            6.23764,
            51.42223
          ],
          [
            6.3091,
            51.4341
          ],
          [
            6.4126,
            51.4465
          ],
          [
            6.52678,
            51.45908
          ],
          [
            6.63573,
            51.46979
          ],
          [
            6.73966,
            51.47508
          ],
          [
            6.78804,
            51.47055
          ],
          [
            6.82905,
            51.45523
          ],
          [
            6.87273,
            51.43996
          ],
          [
            6.91172,
            51.45839
          ],
          [
            6.95061,
            51.4786
          ],
          [
            6.98863,
            51.46857
          ],
          [
            7.02739,
            51.4461
          ],
          [
            7.07448,
            51.41843
          ],
          [
            7.10428,
            51.41181
          ],
          [
            7.15565,
            51.402
          ],
          [
            7.20947,
            51.39578
          ],
          [
            7.23959,
            51.38383
          ],
          [
            7.25271,
            51.34315
          ],
          [
            7.27416,
            51.29726
          ],
          [
            7.24083,
            51.27359
          ],
          [
            7.31153,
            51.25342
          ],
          [
            7.35018,
            51.23273
          ],
          [
            7.37559,
            51.21003
          ],
          [
            7.38028,
            51.17632
          ],
          [
            7.37492,
            51.13176
          ],
          [
            7.37395,
            51.10329
          ],
          [
            7.39465,
            51.06985
          ],
          [
            7.43982,
            51.02969
          ],
          [
            7.48765,
            50.98959
          ],
          [
            7.53282,
            50.94944
          ],
          [
            7.58279,
            50.91826
          ],
          [
            7.64878,
            50.88735
          ],
          [
            7.71724,
            50.86003
          ],
          [
            7.79925,
            50.82939
          ],
          [
            7.84357,
            50.80345
          ],
          [
            7.85872,
            50.77347
          ],
          [
            7.90901,
            50.73696
          ],
          [
            7.97778,
            50.70432
          ],
          [
            8.04901,
            50.67527
          ],
          [
            8.11757,
            50.64618
          ],
          [
            8.15377,
            50.62189
          ],
          [
            8.15248,
            50.59874
          ],
          [
            8.12256,
            50.56267
          ],
          [
            8.12127,
            50.53953
          ],
          [
            8.14486,
            50.50258
          ],
          [
            8.16321,
            50.46375
          ],
          [
            8.16288,
            50.42462
          ],
          [
            8.14866,
            50.39415
          ],
          [
            8.12088,
            50.36701
          ],
          [
            8.07943,
            50.34497
          ],
          [
            7.99771,
            50.32582
          ],
          [
            7.89997,
            50.3064
          ],
          [
            7.81826,
            50.28725
          ],
          [
            7.7202,
            50.27317
          ],
          [
            7.61157,
            50.25712
          ],
          [
            7.61018,
            50.23576
          ],
          [
            7.63334,
            50.20591
          ],
          [
            7.65415,
            50.17069
          ],
          [
            7.65873,
            50.13875
          ],
          [
            7.65263,
            50.10664
          ],
          [
            7.64973,
            50.06568
          ],
          [
            7.64192,
            50.01753
          ],
          [
            7.63101,
            49.97644
          ],
          [
            7.61454,
            49.93882
          ],
          [
            7.59274,
            49.9011
          ],
          [
            7.55769,
            49.86139
          ],
          [
            7.51463,
            49.82154
          ],
          [
            7.45555,
            49.78143
          ],
          [
            7.38557,
            49.74469
          ],
          [
            7.31539,
            49.71151
          ]
        ]
      }
    }
  ]
}
